{
    "type": "FeatureCollection",
    "features": [
      {
        "type": "Feature",
        "geometry": {
          "type": "Point",
          "coordinates": [
            36.5304209,
            136.6276301
          ]
        },
        "properties": {
          "name": "金沢工業大学",
          "address": "石川県野々市市扇が丘7-1",
          "capacity": 300,
          "current_people": 112,
          "stock": [
            {
              "item": "水",
              "quantity": 500
            },
            {
              "item": "毛布",
              "quantity": 120
            },
            {
              "item": "非常食",
              "quantity": 300
            }
          ]
        }
      }
    ]
  }